{"type": "FeatureCollection", "features": [ {"type": "Feature", "properties": {"norad_id": 66736, "name": "FLOCK 4H-33", "group": "last-30-days", "lat": -81.66113600813526, "lon": -175.86623948191067, "alt_km": 518.8439527398405, "timestamp": "2025-12-21T14:40:46.633817+00:00", "meta": {"OBJECT_NAME": "FLOCK 4H-33", "OBJECT_ID": "2025-276BY", "EPOCH": "2025-12-21T04:01:11.865216", "MEAN_MOTION": 15.18257203, "ECCENTRICITY": 0.00024575, "INCLINATION": 97.4436, "RA_OF_ASC_NODE": 66.8185, "ARG_OF_PERICENTER": 164.5215, "MEAN_ANOMALY": 195.6095, "EPHEMERIS_TYPE": 0, "CLASSIFICATION_TYPE": "U", "NORAD_CAT_ID": 66736, "ELEMENT_SET_NO": 999, "REV_AT_EPOCH": 340, "BSTAR": 0.00035274172, "MEAN_MOTION_DOT": 7.16e-05, "MEAN_MOTION_DDOT": 0}, "tle": {"line1": "1 66736U 25276BY  25355.16749844  .00007160  00000+0  35274-3 0  9990", "line2": "2 66736  97.4436  66.8185 0002457 164.5215 195.6095 15.18257203  3405"}}, "geometry": {"type": "Point", "coordinates": [-175.86623948191067, -81.66113600813526]}}, {"type": "Feature", "properties": {"norad_id": 66737, "name": "FLOCK 4H-34", "group": "last-30-days", "lat": -75.64099971943023, "lon": -143.45946920075826, "alt_km": 518.6495755218193, "timestamp": "2025-12-21T14:40:46.633827+00:00", "meta": {"OBJECT_NAME": "FLOCK 4H-34", "OBJECT_ID": "2025-276BZ", "EPOCH": "2025-12-21T05:38:19.012992", "MEAN_MOTION": 15.18130135, "ECCENTRICITY": 0.0002542, "INCLINATION": 97.4446, "RA_OF_ASC_NODE": 66.8866, "ARG_OF_PERICENTER": 174.4199, "MEAN_ANOMALY": 185.7064, "EPHEMERIS_TYPE": 0, "CLASSIFICATION_TYPE": "U", "NORAD_CAT_ID": 66737, "ELEMENT_SET_NO": 999, "REV_AT_EPOCH": 266, "BSTAR": 0.0003821695, "MEAN_MOTION_DOT": 7.735e-05, "MEAN_MOTION_DDOT": 0}, "tle": {"line1": "1 66737U 25276BZ  25355.23494228  .00007735  00000+0  38217-3 0  9990", "line2": "2 66737  97.4446  66.8866 0002542 174.4199 185.7064 15.18130135  2666"}}, "geometry": {"type": "Point", "coordinates": [-143.45946920075826, -75.64099971943023]}}, {"type": "Feature", "properties": {"norad_id": 66738, "name": "FLOCK 4H-35", "group": "last-30-days", "lat": -81.629352116035, "lon": -175.41149277635657, "alt_km": 519.2361645991359, "timestamp": "2025-12-21T14:40:46.633839+00:00", "meta": {"OBJECT_NAME": "FLOCK 4H-35", "OBJECT_ID": "2025-276CA", "EPOCH": "2025-12-21T04:01:12.229824", "MEAN_MOTION": 15.18223533, "ECCENTRICITY": 0.00023838, "INCLINATION": 97.4416, "RA_OF_ASC_NODE": 66.8111, "ARG_OF_PERICENTER": 153.2794, "MEAN_ANOMALY": 206.8564, "EPHEMERIS_TYPE": 0, "CLASSIFICATION_TYPE": "U", "NORAD_CAT_ID": 66738, "ELEMENT_SET_NO": 999, "REV_AT_EPOCH": 269, "BSTAR": 0.00036409422, "MEAN_MOTION_DOT": 7.386e-05, "MEAN_MOTION_DDOT": 0}, "tle": {"line1": "1 66738U 25276CA  25355.16750266  .00007386  00000+0  36409-3 0  9993", "line2": "2 66738  97.4416  66.8111 0002383 153.2794 206.8564 15.18223533  2694"}}, "geometry": {"type": "Point", "coordinates": [-175.41149277635657, -81.629352116035]}}, {"type": "Feature", "properties": {"norad_id": 66739, "name": "FLOCK 4H-36", "group": "last-30-days", "lat": -64.22164597667955, "lon": -128.45699834286694, "alt_km": 518.3189904728997, "timestamp": "2025-12-21T14:40:46.633849+00:00", "meta": {"OBJECT_NAME": "FLOCK 4H-36", "OBJECT_ID": "2025-276CB", "EPOCH": "2025-12-21T05:41:32.610336", "MEAN_MOTION": 15.17970754, "ECCENTRICITY": 0.00023426, "INCLINATION": 97.4459, "RA_OF_ASC_NODE": 66.8864, "ARG_OF_PERICENTER": 189.3058, "MEAN_ANOMALY": 170.8133, "EPHEMERIS_TYPE": 0, "CLASSIFICATION_TYPE": "U", "NORAD_CAT_ID": 66739, "ELEMENT_SET_NO": 999, "REV_AT_EPOCH": 341, "BSTAR": 0.00039898433, "MEAN_MOTION_DOT": 8.042e-05, "MEAN_MOTION_DDOT": 0}, "tle": {"line1": "1 66739U 25276CB  25355.23718299  .00008042  00000+0  39898-3 0  9997", "line2": "2 66739  97.4459  66.8864 0002342 189.3058 170.8133 15.17970754  3411"}}, "geometry": {"type": "Point", "coordinates": [-128.45699834286694, -64.22164597667955]}}, {"type": "Feature", "properties": {"norad_id": 66740, "name": "TRANSPORTER-15 CC", "group": "last-30-days", "lat": -40.031624127090886, "lon": -119.0683102519745, "alt_km": 518.1445619200649, "timestamp": "2025-12-21T14:40:46.633861+00:00", "meta": {"OBJECT_NAME": "TRANSPORTER-15 CC", "OBJECT_ID": "2025-276CC", "EPOCH": "2025-12-21T04:13:02.376480", "MEAN_MOTION": 15.1768086, "ECCENTRICITY": 0.0002042, "INCLINATION": 97.442, "RA_OF_ASC_NODE": 66.8073, "ARG_OF_PERICENTER": 247.2573, "MEAN_ANOMALY": 112.8446, "EPHEMERIS_TYPE": 0, "CLASSIFICATION_TYPE": "U", "NORAD_CAT_ID": 66740, "ELEMENT_SET_NO": 999, "REV_AT_EPOCH": 340, "BSTAR": 0.00028360498, "MEAN_MOTION_DOT": 5.648e-05, "MEAN_MOTION_DDOT": 0}, "tle": {"line1": "1 66740U 25276CC  25355.17572195  .00005648  00000+0  28360-3 0  9996", "line2": "2 66740  97.4420  66.8073 0002042 247.2573 112.8446 15.17680860  3404"}}, "geometry": {"type": "Point", "coordinates": [-119.0683102519745, -40.031624127090886]}}, {"type": "Feature", "properties": {"norad_id": 66741, "name": "TRANSPORTER-15 CD", "group": "last-30-days", "lat": -26.666116719136614, "lon": -116.5404753806149, "alt_km": 517.7461302304655, "timestamp": "2025-12-21T14:40:46.633874+00:00", "meta": {"OBJECT_NAME": "TRANSPORTER-15 CD", "OBJECT_ID": "2025-276CD", "EPOCH": "2025-12-20T15:35:26.593440", "MEAN_MOTION": 15.16370519, "ECCENTRICITY": 0.00149164, "INCLINATION": 97.4418, "RA_OF_ASC_NODE": 66.2803, "ARG_OF_PERICENTER": 254.9889, "MEAN_ANOMALY": 104.9694, "EPHEMERIS_TYPE": 0, "CLASSIFICATION_TYPE": "U", "NORAD_CAT_ID": 66741, "ELEMENT_SET_NO": 999, "REV_AT_EPOCH": 332, "BSTAR": -0.021786228, "MEAN_MOTION_DOT": -0.00401721, "MEAN_MOTION_DDOT": 0}, "tle": {"line1": "1 66741U 25276CD  25354.64961335 -.00401721  00000+0 -21786-1 0  9993", "line2": "2 66741  97.4418  66.2803 0014916 254.9889 104.9694 15.16370519  3329"}}, "geometry": {"type": "Point", "coordinates": [-116.5404753806149, -26.666116719136614]}}, {"type": "Feature", "properties": {"norad_id": 66742, "name": "TRANSPORTER-15 CE", "group": "last-30-days", "lat": -43.10207064635558, "lon": -119.79908066724082, "alt_km": 518.6495592400042, "timestamp": "2025-12-21T14:40:46.633884+00:00", "meta": {"OBJECT_NAME": "TRANSPORTER-15 CE", "OBJECT_ID": "2025-276CE", "EPOCH": "2025-12-21T04:12:13.410144", "MEAN_MOTION": 15.17676885, "ECCENTRICITY": 0.00014946, "INCLINATION": 97.4412, "RA_OF_ASC_NODE": 66.7977, "ARG_OF_PERICENTER": 197.2585, "MEAN_ANOMALY": 162.8598, "EPHEMERIS_TYPE": 0, "CLASSIFICATION_TYPE": "U", "NORAD_CAT_ID": 66742, "ELEMENT_SET_NO": 999, "REV_AT_EPOCH": 340, "BSTAR": 0.00023237538, "MEAN_MOTION_DOT": 4.614e-05, "MEAN_MOTION_DDOT": 0}, "tle": {"line1": "1 66742U 25276CE  25355.17515521  .00004614  00000+0  23238-3 0  9999", "line2": "2 66742  97.4412  66.7977 0001494 197.2585 162.8598 15.17676885  3401"}}, "geometry": {"type": "Point", "coordinates": [-119.79908066724082, -43.10207064635558]}}, {"type": "Feature", "properties": {"norad_id": 66743, "name": "TRANSPORTER-15 CF", "group": "last-30-days", "lat": -24.75947363938147, "lon": -116.23718525255526, "alt_km": 518.8476422597196, "timestamp": "2025-12-21T14:40:46.633895+00:00", "meta": {"OBJECT_NAME": "TRANSPORTER-15 CF", "OBJECT_ID": "2025-276CF", "EPOCH": "2025-12-21T02:42:05.509728", "MEAN_MOTION": 15.17483627, "ECCENTRICITY": 4.571e-05, "INCLINATION": 97.4411, "RA_OF_ASC_NODE": 66.7283, "ARG_OF_PERICENTER": 246.6709, "MEAN_ANOMALY": 113.4476, "EPHEMERIS_TYPE": 0, "CLASSIFICATION_TYPE": "U", "NORAD_CAT_ID": 66743, "ELEMENT_SET_NO": 999, "REV_AT_EPOCH": 339, "BSTAR": 0.00032050388, "MEAN_MOTION_DOT": 6.355e-05, "MEAN_MOTION_DDOT": 0}, "tle": {"line1": "1 66743U 25276CF  25355.11256377  .00006355  00000+0  32050-3 0  9991", "line2": "2 66743  97.4411  66.7283 0000457 246.6709 113.4476 15.17483627  3391"}}, "geometry": {"type": "Point", "coordinates": [-116.23718525255526, -24.75947363938147]}}, {"type": "Feature", "properties": {"norad_id": 66744, "name": "TRANSPORTER-15 CG", "group": "last-30-days", "lat": -17.651190044732882, "lon": -115.15890287459716, "alt_km": 518.5236067660344, "timestamp": "2025-12-21T14:40:46.633905+00:00", "meta": {"OBJECT_NAME": "TRANSPORTER-15 CG", "OBJECT_ID": "2025-276CG", "EPOCH": "2025-12-21T04:18:51.807456", "MEAN_MOTION": 15.17309836, "ECCENTRICITY": 0.00013428, "INCLINATION": 97.4421, "RA_OF_ASC_NODE": 66.8007, "ARG_OF_PERICENTER": 256.1946, "MEAN_ANOMALY": 103.9138, "EPHEMERIS_TYPE": 0, "CLASSIFICATION_TYPE": "U", "NORAD_CAT_ID": 66744, "ELEMENT_SET_NO": 999, "REV_AT_EPOCH": 340, "BSTAR": 0.00016669149, "MEAN_MOTION_DOT": 3.256e-05, "MEAN_MOTION_DDOT": 0}, "tle": {"line1": "1 66744U 25276CG  25355.17976629  .00003256  00000+0  16669-3 0  9992", "line2": "2 66744  97.4421  66.8007 0001342 256.1946 103.9138 15.17309836  3401"}}, "geometry": {"type": "Point", "coordinates": [-115.15890287459716, -17.651190044732882]}}, {"type": "Feature", "properties": {"norad_id": 66745, "name": "TRANSPORTER-15 CH", "group": "last-30-days", "lat": -23.642305073129382, "lon": -116.05911940304657, "alt_km": 518.6144417623254, "timestamp": "2025-12-21T14:40:46.633915+00:00", "meta": {"OBJECT_NAME": "TRANSPORTER-15 CH", "OBJECT_ID": "2025-276CH", "EPOCH": "2025-12-21T02:42:20.914848", "MEAN_MOTION": 15.17407392, "ECCENTRICITY": 0.00013687, "INCLINATION": 97.4422, "RA_OF_ASC_NODE": 66.7312, "ARG_OF_PERICENTER": 254.3008, "MEAN_ANOMALY": 105.8074, "EPHEMERIS_TYPE": 0, "CLASSIFICATION_TYPE": "U", "NORAD_CAT_ID": 66745, "ELEMENT_SET_NO": 999, "REV_AT_EPOCH": 339, "BSTAR": 0.00029017696, "MEAN_MOTION_DOT": 5.735e-05, "MEAN_MOTION_DDOT": 0}, "tle": {"line1": "1 66745U 25276CH  25355.11274207  .00005735  00000+0  29018-3 0  9996", "line2": "2 66745  97.4422  66.7312 0001368 254.3008 105.8074 15.17407392  3392"}}, "geometry": {"type": "Point", "coordinates": [-116.05911940304657, -23.642305073129382]}}]}